[{"OBJECT_NAME":"STARLINK-11368 [DTC]","OBJECT_ID":"2024-187K","EPOCH":"2025-11-29T13:56:09.100896","MEAN_MOTION":15.69704796,"ECCENTRICITY":0.0001104,"INCLINATION":53.1604,"RA_OF_ASC_NODE":70.0044,"ARG_OF_PERICENTER":99.6424,"MEAN_ANOMALY":260.4719,"EPHEMERIS_TYPE":0,"CLASSIFICATION_TYPE":"U","NORAD_CAT_ID":61583,"ELEMENT_SET_NO":999,"REV_AT_EPOCH":6497,"BSTAR":3.2292e-6,"MEAN_MOTION_DOT":-1.97e-6,"MEAN_MOTION_DDOT":0},{"OBJECT_NAME":"STARLINK-11370 [DTC]","OBJECT_ID":"2024-187L","EPOCH":"2025-11-29T13:49:05.244960","MEAN_MOTION":15.69701533,"ECCENTRICITY":0.0001031,"INCLINATION":53.159,"RA_OF_ASC_NODE":69.9729,"ARG_OF_PERICENTER":86.167,"MEAN_ANOMALY":273.9465,"EPHEMERIS_TYPE":0,"CLASSIFICATION_TYPE":"U","NORAD_CAT_ID":61584,"ELEMENT_SET_NO":999,"REV_AT_EPOCH":6502,"BSTAR":9.0582e-6,"MEAN_MOTION_DOT":5.09e-6,"MEAN_MOTION_DDOT":0},{"OBJECT_NAME":"STARLINK-11361 [DTC]","OBJECT_ID":"2024-187M","EPOCH":"2025-11-29T15:13:42.000096","MEAN_MOTION":15.69813583,"ECCENTRICITY":0.0001179,"INCLINATION":53.1565,"RA_OF_ASC_NODE":69.624,"ARG_OF_PERICENTER":93.1478,"MEAN_ANOMALY":266.9675,"EPHEMERIS_TYPE":0,"CLASSIFICATION_TYPE":"U","NORAD_CAT_ID":61585,"ELEMENT_SET_NO":999,"REV_AT_EPOCH":6503,"BSTAR":0.0020947,"MEAN_MOTION_DOT":0.00262503,"MEAN_MOTION_DDOT":0},{"OBJECT_NAME":"STARLINK-11360 [DTC]","OBJECT_ID":"2024-187N","EPOCH":"2025-11-29T16:38:19.394592","MEAN_MOTION":15.69705003,"ECCENTRICITY":0.0001206,"INCLINATION":53.1603,"RA_OF_ASC_NODE":69.28,"ARG_OF_PERICENTER":87.9977,"MEAN_ANOMALY":272.1179,"EPHEMERIS_TYPE":0,"CLASSIFICATION_TYPE":"U","NORAD_CAT_ID":61586,"ELEMENT_SET_NO":999,"REV_AT_EPOCH":6509,"BSTAR":1.0034e-5,"MEAN_MOTION_DOT":6.27e-6,"MEAN_MOTION_DDOT":0},{"OBJECT_NAME":"STARLINK-32353","OBJECT_ID":"2024-187P","EPOCH":"2025-11-29T19:36:32.410656","MEAN_MOTION":15.30187915,"ECCENTRICITY":9.75e-5,"INCLINATION":53.1595,"RA_OF_ASC_NODE":168.8584,"ARG_OF_PERICENTER":72.9926,"MEAN_ANOMALY":287.1181,"EPHEMERIS_TYPE":0,"CLASSIFICATION_TYPE":"U","NORAD_CAT_ID":61587,"ELEMENT_SET_NO":999,"REV_AT_EPOCH":6373,"BSTAR":0.00074314,"MEAN_MOTION_DOT":0.00021706,"MEAN_MOTION_DDOT":0},{"OBJECT_NAME":"STARLINK-32325","OBJECT_ID":"2024-187Q","EPOCH":"2025-11-29T20:03:54.403776","MEAN_MOTION":15.30175084,"ECCENTRICITY":0.0001197,"INCLINATION":53.1614,"RA_OF_ASC_NODE":168.9886,"ARG_OF_PERICENTER":107.0819,"MEAN_ANOMALY":253.0312,"EPHEMERIS_TYPE":0,"CLASSIFICATION_TYPE":"U","NORAD_CAT_ID":61588,"ELEMENT_SET_NO":999,"REV_AT_EPOCH":6379,"BSTAR":-7.3601e-5,"MEAN_MOTION_DOT":-2.536e-5,"MEAN_MOTION_DDOT":0},{"OBJECT_NAME":"STARLINK-32416","OBJECT_ID":"2024-187R","EPOCH":"2025-11-29T19:14:02.143680","MEAN_MOTION":15.39614378,"ECCENTRICITY":0.0001041,"INCLINATION":53.1598,"RA_OF_ASC_NODE":154.558,"ARG_OF_PERICENTER":90.7052,"MEAN_ANOMALY":269.4072,"EPHEMERIS_TYPE":0,"CLASSIFICATION_TYPE":"U","NORAD_CAT_ID":61589,"ELEMENT_SET_NO":999,"REV_AT_EPOCH":6399,"BSTAR":-6.7803e-6,"MEAN_MOTION_DOT":-6.7e-6,"MEAN_MOTION_DDOT":0},{"OBJECT_NAME":"STARLINK-32413","OBJECT_ID":"2024-187S","EPOCH":"2025-11-29T20:28:11.051616","MEAN_MOTION":15.30192498,"ECCENTRICITY":0.0001101,"INCLINATION":53.159,"RA_OF_ASC_NODE":169.0782,"ARG_OF_PERICENTER":96.0031,"MEAN_ANOMALY":264.1095,"EPHEMERIS_TYPE":0,"CLASSIFICATION_TYPE":"U","NORAD_CAT_ID":61590,"ELEMENT_SET_NO":999,"REV_AT_EPOCH":6379,"BSTAR":-1.7604e-5,"MEAN_MOTION_DOT":-8.8e-6,"MEAN_MOTION_DDOT":0},{"OBJECT_NAME":"STARLINK-32409","OBJECT_ID":"2024-187T","EPOCH":"2025-11-29T17:27:39.886272","MEAN_MOTION":15.3961971,"ECCENTRICITY":0.0001043,"INCLINATION":53.1591,"RA_OF_ASC_NODE":154.8039,"ARG_OF_PERICENTER":78.0468,"MEAN_ANOMALY":282.0654,"EPHEMERIS_TYPE":0,"CLASSIFICATION_TYPE":"U","NORAD_CAT_ID":61591,"ELEMENT_SET_NO":999,"REV_AT_EPOCH":6398,"BSTAR":3.2246e-6,"MEAN_MOTION_DOT":-2.7e-6,"MEAN_MOTION_DDOT":0},{"OBJECT_NAME":"STARLINK-32422","OBJECT_ID":"2024-187U","EPOCH":"2025-11-29T19:47:48.431040","MEAN_MOTION":15.39618713,"ECCENTRICITY":0.0001123,"INCLINATION":53.1611,"RA_OF_ASC_NODE":153.9914,"ARG_OF_PERICENTER":93.7797,"MEAN_ANOMALY":266.3336,"EPHEMERIS_TYPE":0,"CLASSIFICATION_TYPE":"U","NORAD_CAT_ID":61592,"ELEMENT_SET_NO":999,"REV_AT_EPOCH":6400,"BSTAR":7.1239e-8,"MEAN_MOTION_DOT":-3.96e-6,"MEAN_MOTION_DDOT":0},{"OBJECT_NAME":"STARLINK-32397","OBJECT_ID":"2024-187V","EPOCH":"2025-11-29T20:10:42.256704","MEAN_MOTION":15.30192764,"ECCENTRICITY":0.0001241,"INCLINATION":53.1588,"RA_OF_ASC_NODE":166.8756,"ARG_OF_PERICENTER":89.3573,"MEAN_ANOMALY":270.757,"EPHEMERIS_TYPE":0,"CLASSIFICATION_TYPE":"U","NORAD_CAT_ID":61593,"ELEMENT_SET_NO":999,"REV_AT_EPOCH":6382,"BSTAR":4.7156e-6,"MEAN_MOTION_DOT":-2.19e-6,"MEAN_MOTION_DDOT":0},{"OBJECT_NAME":"STARLINK-32302","OBJECT_ID":"2024-191A","EPOCH":"2025-11-30T03:12:29.759328","MEAN_MOTION":15.27602954,"ECCENTRICITY":0.0001577,"INCLINATION":43.0008,"RA_OF_ASC_NODE":356.4807,"ARG_OF_PERICENTER":263.3983,"MEAN_ANOMALY":96.6689,"EPHEMERIS_TYPE":0,"CLASSIFICATION_TYPE":"U","NORAD_CAT_ID":61621,"ELEMENT_SET_NO":999,"REV_AT_EPOCH":6306,"BSTAR":0.00012277,"MEAN_MOTION_DOT":3.12e-5,"MEAN_MOTION_DDOT":0},{"OBJECT_NAME":"STARLINK-32364","OBJECT_ID":"2024-191B","EPOCH":"2025-11-30T03:27:21.709728","MEAN_MOTION":15.27498646,"ECCENTRICITY":9.17e-5,"INCLINATION":43.0017,"RA_OF_ASC_NODE":356.5608,"ARG_OF_PERICENTER":271.0646,"MEAN_ANOMALY":89.0101,"EPHEMERIS_TYPE":0,"CLASSIFICATION_TYPE":"U","NORAD_CAT_ID":61622,"ELEMENT_SET_NO":999,"REV_AT_EPOCH":6231,"BSTAR":0.00058564,"MEAN_MOTION_DOT":0.00015848,"MEAN_MOTION_DDOT":0},{"OBJECT_NAME":"STARLINK-32331","OBJECT_ID":"2024-191C","EPOCH":"2025-11-30T03:45:09.953280","MEAN_MOTION":15.27574183,"ECCENTRICITY":0.000159,"INCLINATION":43.0018,"RA_OF_ASC_NODE":0.1236,"ARG_OF_PERICENTER":279.9784,"MEAN_ANOMALY":80.0888,"EPHEMERIS_TYPE":0,"CLASSIFICATION_TYPE":"U","NORAD_CAT_ID":61623,"ELEMENT_SET_NO":999,"REV_AT_EPOCH":6227,"BSTAR":-0.00012481,"MEAN_MOTION_DOT":-3.695e-5,"MEAN_MOTION_DDOT":0},{"OBJECT_NAME":"STARLINK-32398","OBJECT_ID":"2024-191D","EPOCH":"2025-11-30T03:44:00.002976","MEAN_MOTION":15.27578497,"ECCENTRICITY":8.32e-5,"INCLINATION":42.9997,"RA_OF_ASC_NODE":356.6493,"ARG_OF_PERICENTER":282.8176,"MEAN_ANOMALY":77.2583,"EPHEMERIS_TYPE":0,"CLASSIFICATION_TYPE":"U","NORAD_CAT_ID":61624,"ELEMENT_SET_NO":999,"REV_AT_EPOCH":6231,"BSTAR":9.109e-7,"MEAN_MOTION_DOT":-2.37e-6,"MEAN_MOTION_DDOT":0},{"OBJECT_NAME":"STARLINK-32365","OBJECT_ID":"2024-191E","EPOCH":"2025-11-30T03:16:14.609280","MEAN_MOTION":15.27581446,"ECCENTRICITY":0.0001583,"INCLINATION":43.0022,"RA_OF_ASC_NODE":356.5024,"ARG_OF_PERICENTER":247.4238,"MEAN_ANOMALY":112.6447,"EPHEMERIS_TYPE":0,"CLASSIFICATION_TYPE":"U","NORAD_CAT_ID":61625,"ELEMENT_SET_NO":999,"REV_AT_EPOCH":6231,"BSTAR":0.00035051,"MEAN_MOTION_DOT":9.396e-5,"MEAN_MOTION_DDOT":0},{"OBJECT_NAME":"STARLINK-32333","OBJECT_ID":"2024-191F","EPOCH":"2025-11-30T02:27:39.259008","MEAN_MOTION":15.2758298,"ECCENTRICITY":4.63e-5,"INCLINATION":42.9983,"RA_OF_ASC_NODE":0.5781,"ARG_OF_PERICENTER":159.1807,"MEAN_ANOMALY":200.9063,"EPHEMERIS_TYPE":0,"CLASSIFICATION_TYPE":"U","NORAD_CAT_ID":61626,"ELEMENT_SET_NO":999,"REV_AT_EPOCH":6226,"BSTAR":-2.8541e-5,"MEAN_MOTION_DOT":-1.047e-5,"MEAN_MOTION_DDOT":0}]
