STARLINK-11368 [DTC]    
1 61583U 24187K   25333.58066089 -.00000197  00000+0  32292-5 0  9993
2 61583  53.1604  70.0044 0001104  99.6424 260.4719 15.69704796 64978
STARLINK-11370 [DTC]    
1 61584U 24187L   25333.57575515  .00000509  00000+0  90582-5 0  9994
2 61584  53.1590  69.9729 0001031  86.1670 273.9465 15.69701533 65023
STARLINK-11361 [DTC]    
1 61585U 24187M   25333.63451389  .00262503  00000+0  20947-2 0  9993
2 61585  53.1565  69.6240 0001179  93.1478 266.9675 15.69813583 65033
STARLINK-11360 [DTC]    
1 61586U 24187N   25333.69328003  .00000627  00000+0  10034-4 0  9991
2 61586  53.1603  69.2800 0001206  87.9977 272.1179 15.69705003 65092
STARLINK-32353          
1 61587U 24187P   25333.81704179  .00021706  00000+0  74314-3 0  9999
2 61587  53.1595 168.8584 0000975  72.9926 287.1181 15.30187915 63730
STARLINK-32325          
1 61588U 24187Q   25333.83604634 -.00002536  00000+0 -73601-4 0  9998
2 61588  53.1614 168.9886 0001197 107.0819 253.0312 15.30175084 63795
STARLINK-32416          
1 61589U 24187R   25333.80141370 -.00000670  00000+0 -67803-5 0  9994
2 61589  53.1598 154.5580 0001041  90.7052 269.4072 15.39614378 63993
STARLINK-32413          
1 61590U 24187S   25333.85290569 -.00000880  00000+0 -17604-4 0  9992
2 61590  53.1590 169.0782 0001101  96.0031 264.1095 15.30192498 63795
STARLINK-32409          
1 61591U 24187T   25333.72754498 -.00000270  00000+0  32246-5 0  9997
2 61591  53.1591 154.8039 0001043  78.0468 282.0654 15.39619710 63984
STARLINK-32422          
1 61592U 24187U   25333.82486610 -.00000396  00000+0  71239-7 0  9993
2 61592  53.1611 153.9914 0001123  93.7797 266.3336 15.39618713 64006
STARLINK-32397          
1 61593U 24187V   25333.84076686 -.00000219  00000+0  47156-5 0  9997
2 61593  53.1588 166.8756 0001241  89.3573 270.7570 15.30192764 63823
STARLINK-32302          
1 61621U 24191A   25334.13367777  .00003120  00000+0  12277-3 0  9998
2 61621  43.0008 356.4807 0001577 263.3983  96.6689 15.27602954 63060
STARLINK-32364          
1 61622U 24191B   25334.14400127  .00015848  00000+0  58564-3 0  9996
2 61622  43.0017 356.5608 0000917 271.0646  89.0101 15.27498646 62313
STARLINK-32331          
1 61623U 24191C   25334.15636520 -.00003695  00000+0 -12481-3 0  9993
2 61623  43.0018   0.1236 0001590 279.9784  80.0888 15.27574183 62271
STARLINK-32398          
1 61624U 24191D   25334.15555559 -.00000237  00000+0  91090-6 0  9990
2 61624  42.9997 356.6493 0000832 282.8176  77.2583 15.27578497 62313
STARLINK-32365          
1 61625U 24191E   25334.13628020  .00009396  00000+0  35051-3 0  9999
2 61625  43.0022 356.5024 0001583 247.4238 112.6447 15.27581446 62315
STARLINK-32333          
1 61626U 24191F   25334.10253772 -.00001047  00000+0 -28541-4 0  9999
2 61626  42.9983   0.5781 0000463 159.1807 200.9063 15.27582980 62266
